$$SOE
2461288.500000000, A.D. 2026-Sep-05 00:00:00.0000, -1.904814129362900E+08, -3.633581263557898E+08, -1.804744010987934E+07,
2461295.500000000, A.D. 2026-Sep-12 00:00:00.0000, -1.817070946495309E+08, -3.678318167321419E+08, -1.721548103249395E+07,
2461302.500000000, A.D. 2026-Sep-19 00:00:00.0000, -1.728053621787470E+08, -3.720476245273837E+08, -1.637145117584455E+07,
2461309.500000000, A.D. 2026-Sep-26 00:00:00.0000, -1.637823886436651E+08, -3.760024451972563E+08, -1.551593564456785E+07,
2461316.500000000, A.D. 2026-Oct-03 00:00:00.0000, -1.546443970220605E+08, -3.796932579011684E+08, -1.464952434761482E+07,
2461323.500000000, A.D. 2026-Oct-10 00:00:00.0000, -1.453976628634987E+08, -3.831171246858943E+08, -1.377281224490693E+07,
2461330.500000000, A.D. 2026-Oct-17 00:00:00.0000, -1.360485171424807E+08, -3.862711899784629E+08, -1.288639960749516E+07,
2461337.500000000, A.D. 2026-Oct-24 00:00:00.0000, -1.266033492221789E+08, -3.891526804162741E+08, -1.199089229493815E+07,
2461344.500000000, A.D. 2026-Oct-31 00:00:00.0000, -1.170686098262712E+08, -3.917589050870507E+08, -1.108690206389785E+07,
2461351.500000000, A.D. 2026-Nov-07 00:00:00.0000, -1.074508136761906E+08, -3.940872561106349E+08, -1.017504693237096E+07,
2461358.500000000, A.D. 2026-Nov-14 00:00:00.0000, -9.775654158911611E+07, -3.961352086815529E+08, -9.255951544763267E+06,
2461365.500000000, A.D. 2026-Nov-21 00:00:00.0000, -8.799244384420808E+07, -3.979003198966115E+08, -8.330247315187871E+06,
2461372.500000000, A.D. 2026-Nov-28 00:00:00.0000, -7.816524580975538E+07, -3.993802293819497E+08, -7.398572502640128E+06,
2461379.500000000, A.D. 2026-Dec-05 00:00:00.0000, -6.828175220572183E+07, -4.005726623849288E+08, -6.461572603105128E+06,
2461386.500000000, A.D. 2026-Dec-12 00:00:00.0000, -5.834884983164255E+07, -4.014754322310476E+08, -5.519900818746716E+06,
2461393.500000000, A.D. 2026-Dec-19 00:00:00.0000, -4.837351064209257E+07, -4.020864421503781E+08, -4.574218429664850E+06,
2461400.500000000, A.D. 2026-Dec-26 00:00:00.0000, -3.836279530641864E+07, -4.024036873523994E+08, -3.625195125182837E+06,
2461407.500000000, A.D. 2027-Jan-02 00:00:00.0000, -2.832385697063784E+07, -4.024252575514054E+08, -2.673509334686130E+06,
2461414.500000000, A.D. 2027-Jan-09 00:00:00.0000, -1.826394509748189E+07, -4.021493399341195E+08, -1.719848566302150E+06,
2461421.500000000, A.D. 2027-Jan-16 00:00:00.0000, -8.190409341082719E+06, -4.015742225738070E+08, -7.649097552315593E+05,
2461428.500000000, A.D. 2027-Jan-23 00:00:00.0000, 1.889296598573756E+06, -4.006982983456827E+08, 1.906003716004193E+05,
2461435.500000000, A.D. 2027-Jan-30 00:00:00.0000, 1.196761133829284E+07, -3.995200694082179E+08, 1.145964894440353E+06,
2461442.500000000, A.D. 2027-Feb-06 00:00:00.0000, 2.203686282588844E+07, -3.980381519278591E+08, 2.100456253134310E+06,
2461449.500000000, A.D. 2027-Feb-13 00:00:00.0000, 3.208926555663797E+07, -3.962512798451916E+08, 3.053335896220386E+06,
2461456.500000000, A.D. 2027-Feb-20 00:00:00.0000, 4.211691564108834E+07, -3.941583084906520E+08, 4.003854180054337E+06,
2461463.500000000, A.D. 2027-Feb-27 00:00:00.0000, 5.211178513646258E+07, -3.917582212809395E+08, 4.951250128469020E+06,
2461470.500000000, A.D. 2027-Mar-06 00:00:00.0000, 6.206571867902117E+07, -3.890501375944493E+08, 5.894750934747308E+06,
2461477.500000000, A.D. 2027-Mar-13 00:00:00.0000, 7.197043083751853E+07, -3.860333197995638E+08, 6.833571522162586E+06,
2461484.500000000, A.D. 2027-Mar-20 00:00:00.0000, 8.181750307978922E+07, -3.827071802935458E+08, 7.766914200831279E+06,
2461491.500000000, A.D. 2027-Mar-27 00:00:00.0000, 9.159838057737176E+07, -3.790712891231244E+08, 8.693968360116810E+06,
2461498.500000000, A.D. 2027-Apr-03 00:00:00.0000, 1.013043690758877E+08, -3.751253822547334E+08, 9.613910176773518E+06,
2461505.500000000, A.D. 2027-Apr-10 00:00:00.0000, 1.109266319210491E+08, -3.708693704888728E+08, 1.052590233758074E+07,
2461512.500000000, A.D. 2027-Apr-17 00:00:00.0000, 1.204561872976291E+08, -3.663033490495766E+08, 1.142909377554454E+07,
2461519.500000000, A.D. 2027-Apr-24 00:00:00.0000, 1.298839058033044E+08, -3.614276079312858E+08, 1.232261941003250E+07,
2461526.500000000, A.D. 2027-May-01 00:00:00.0000, 1.392005087042329E+08, -3.562426430012632E+08, 1.320559986953244E+07,
2461533.500000000, A.D. 2027-May-08 00:00:00.0000, 1.483965672281422E+08, -3.507491671381663E+08, 1.407714123509677E+07,
2461540.500000000, A.D. 2027-May-15 00:00:00.0000, 1.574625014471892E+08, -3.449481204801699E+08, 1.493633502530552E+07,
2461547.500000000, A.D. 2027-May-22 00:00:00.0000, 1.663885772390608E+08, -3.388406823950803E+08, 1.578225835990500E+07,
2461554.500000000, A.D. 2027-May-29 00:00:00.0000, 1.751649047415320E+08, -3.324282866570262E+08, 1.661397387992662E+07,
2461561.500000000, A.D. 2027-Jun-05 00:00:00.0000, 1.837814392523771E+08, -3.257126367139553E+08, 1.743052960541604E+07,
2461568.500000000, A.D. 2027-Jun-12 00:00:00.0000, 1.922279826401248E+08, -3.186957206287724E+08, 1.823095895729113E+07,
2461575.500000000, A.D. 2027-Jun-19 00:00:00.0000, 2.004941850136725E+08, -3.113798266401644E+08, 1.901428090496300E+07,
2461582.500000000, A.D. 2027-Jun-26 00:00:00.0000, 2.085695470160039E+08, -3.037675596115674E+08, 1.977950020110148E+07,
2461589.500000000, A.D. 2027-Jul-03 00:00:00.0000, 2.164434229667959E+08, -2.958618583628715E+08, 2.052560770123731E+07,
2461596.500000000, A.D. 2027-Jul-10 00:00:00.0000, 2.241050249898023E+08, -2.876660138736189E+08, 2.125158077533168E+07,
2461603.500000000, A.D. 2027-Jul-17 00:00:00.0000, 2.315434282666897E+08, -2.791836883865665E+08, 2.195638381502032E+07,
2461610.500000000, A.D. 2027-Jul-24 00:00:00.0000, 2.387475776866669E+08, -2.704189354554104E+08, 2.263896882775223E+07,
2461617.500000000, A.D. 2027-Jul-31 00:00:00.0000, 2.457062964250987E+08, -2.613762206739003E+08, 2.329827611114317E+07,
2461624.500000000, A.D. 2027-Aug-07 00:00:00.0000, 2.524082963790857E+08, -2.520604418993332E+08, 2.393323513303509E+07,
2461631.500000000, A.D. 2027-Aug-14 00:00:00.0000, 2.588421882913153E+08, -2.424769491757173E+08, 2.454276582057202E+07,
2461638.500000000, A.D. 2027-Aug-21 00:00:00.0000, 2.649964923172151E+08, -2.326315676536543E+08, 2.512577993884489E+07,
2461645.500000000, A.D. 2027-Aug-28 00:00:00.0000, 2.708596526126660E+08, -2.225306222182560E+08, 2.568118235532721E+07,
2461652.500000000, A.D. 2027-Sep-04 00:00:00.0000, 2.764200549170876E+08, -2.121809612231604E+08, 2.620787251697800E+07,
2461659.500000000, A.D. 2027-Sep-11 00:00:00.0000, 2.816660458975435E+08, -2.015899798762374E+08, 2.670474622900204E+07,
2461666.500000000, A.D. 2027-Sep-18 00:00:00.0000, 2.865859545497363E+08, -1.907656437914691E+08, 2.717069768542150E+07,
2461673.500000000, A.D. 2027-Sep-25 00:00:00.0000, 2.911681160469434E+08, -1.797165126260703E+08, 2.760462173975401E+07,
2461680.500000000, A.D. 2027-Oct-02 00:00:00.0000, 2.954008982713614E+08, -1.684517635911570E+08, 2.800541642658421E+07,
2461687.500000000, A.D. 2027-Oct-09 00:00:00.0000, 2.992727312042987E+08, -1.569812146284966E+08, 2.837198574641947E+07,
2461694.500000000, A.D. 2027-Oct-16 00:00:00.0000, 3.027721393828565E+08, -1.453153470661010E+08, 2.870324271707366E+07,
2461701.500000000, A.D. 2027-Oct-23 00:00:00.0000, 3.058877778139361E+08, -1.334653274821818E+08, 2.899811267877460E+07,
2461708.500000000, A.D. 2027-Oct-30 00:00:00.0000, 3.086084718380749E+08, -1.214430278548705E+08, 2.925553687890689E+07,
2461715.500000000, A.D. 2027-Nov-06 00:00:00.0000, 3.109232598839483E+08, -1.092610425269079E+08, 2.947447654593879E+07,
2461722.500000000, A.D. 2027-Nov-13 00:00:00.0000, 3.128214372050065E+08, -9.693270369063200E+07, 2.965391747308344E+07,
2461729.500000000, A.D. 2027-Nov-20 00:00:00.0000, 3.142926035374129E+08, -8.447209717075768E+07, 2.979287466979054E+07,
2461736.500000000, A.D. 2027-Nov-27 00:00:00.0000, 3.153267162970132E+08, -7.189407509463461E+07, 2.989039717450199E+07,
2461743.500000000, A.D. 2027-Dec-04 00:00:00.0000, 3.159141472517228E+08, -5.921426406145000E+07, 2.994557328577622E+07,
2461750.500000000, A.D. 2027-Dec-11 00:00:00.0000, 3.160457420268510E+08, -4.644906927506820E+07, 2.995753617584687E+07,
2461757.500000000, A.D. 2027-Dec-18 00:00:00.0000, 3.157128825644114E+08, -3.361567445949005E+07, 2.992546982004079E+07,
2461764.500000000, A.D. 2027-Dec-25 00:00:00.0000, 3.149075524625831E+08, -2.073203702403096E+07, 2.984861520666358E+07,
2461771.500000000, A.D. 2028-Jan-01 00:00:00.0000, 3.136224049292318E+08, -7.816877918893455E+06, 2.972627679410759E+07,
$$EOE